[{"OBJECT_NAME":"QIANFAN-103","OBJECT_ID":"2025-233N","EPOCH":"2026-03-03T02:59:36.184704","MEAN_MOTION":13.51006076,"ECCENTRICITY":0.0001882,"INCLINATION":88.9932,"RA_OF_ASC_NODE":53.9147,"ARG_OF_PERICENTER":91.3699,"MEAN_ANOMALY":268.7668,"EPHEMERIS_TYPE":0,"CLASSIFICATION_TYPE":"U","NORAD_CAT_ID":66045,"ELEMENT_SET_NO":999,"REV_AT_EPOCH":1886,"BSTAR":7.8462e-5,"MEAN_MOTION_DOT":6.3e-7,"MEAN_MOTION_DDOT":0},{"OBJECT_NAME":"QIANFAN-104","OBJECT_ID":"2025-233P","EPOCH":"2026-03-03T03:05:13.752960","MEAN_MOTION":13.51010073,"ECCENTRICITY":0.0002088,"INCLINATION":88.9936,"RA_OF_ASC_NODE":53.8116,"ARG_OF_PERICENTER":86.2567,"MEAN_ANOMALY":273.8822,"EPHEMERIS_TYPE":0,"CLASSIFICATION_TYPE":"U","NORAD_CAT_ID":66046,"ELEMENT_SET_NO":999,"REV_AT_EPOCH":1891,"BSTAR":3.7364e-5,"MEAN_MOTION_DOT":3.6e-7,"MEAN_MOTION_DDOT":0},{"OBJECT_NAME":"QIANFAN-105","OBJECT_ID":"2025-233Q","EPOCH":"2026-03-03T03:16:54.886368","MEAN_MOTION":13.50981402,"ECCENTRICITY":0.0002011,"INCLINATION":88.995,"RA_OF_ASC_NODE":53.6397,"ARG_OF_PERICENTER":92.6132,"MEAN_ANOMALY":267.5249,"EPHEMERIS_TYPE":0,"CLASSIFICATION_TYPE":"U","NORAD_CAT_ID":66047,"ELEMENT_SET_NO":999,"REV_AT_EPOCH":1902,"BSTAR":5.1258e-5,"MEAN_MOTION_DOT":4.5e-7,"MEAN_MOTION_DDOT":0},{"OBJECT_NAME":"QIANFAN-106","OBJECT_ID":"2025-233R","EPOCH":"2026-03-03T03:11:22.946208","MEAN_MOTION":13.5100506,"ECCENTRICITY":0.0002383,"INCLINATION":88.9918,"RA_OF_ASC_NODE":53.8863,"ARG_OF_PERICENTER":87.2331,"MEAN_ANOMALY":272.9093,"EPHEMERIS_TYPE":0,"CLASSIFICATION_TYPE":"U","NORAD_CAT_ID":66048,"ELEMENT_SET_NO":999,"REV_AT_EPOCH":1887,"BSTAR":3.4502e-5,"MEAN_MOTION_DOT":3.4e-7,"MEAN_MOTION_DDOT":0},{"OBJECT_NAME":"QIANFAN-107","OBJECT_ID":"2025-233S","EPOCH":"2026-03-03T03:23:16.229184","MEAN_MOTION":13.51003094,"ECCENTRICITY":0.0001909,"INCLINATION":88.9934,"RA_OF_ASC_NODE":53.9011,"ARG_OF_PERICENTER":90.483,"MEAN_ANOMALY":269.654,"EPHEMERIS_TYPE":0,"CLASSIFICATION_TYPE":"U","NORAD_CAT_ID":66049,"ELEMENT_SET_NO":999,"REV_AT_EPOCH":1887,"BSTAR":4.8916e-5,"MEAN_MOTION_DOT":4.4e-7,"MEAN_MOTION_DDOT":0},{"OBJECT_NAME":"QIANFAN-108","OBJECT_ID":"2025-233T","EPOCH":"2026-03-03T03:29:11.094720","MEAN_MOTION":13.51004554,"ECCENTRICITY":0.0002326,"INCLINATION":88.9927,"RA_OF_ASC_NODE":53.8959,"ARG_OF_PERICENTER":86.8022,"MEAN_ANOMALY":273.3395,"EPHEMERIS_TYPE":0,"CLASSIFICATION_TYPE":"U","NORAD_CAT_ID":66050,"ELEMENT_SET_NO":999,"REV_AT_EPOCH":1887,"BSTAR":3.2332e-5,"MEAN_MOTION_DOT":3.3e-7,"MEAN_MOTION_DDOT":0}]
