QIANFAN-103             
1 66045U 25233N   26062.12472436  .00000063  00000+0  78462-4 0  9990
2 66045  88.9932  53.9147 0001882  91.3699 268.7668 13.51006076 18862
QIANFAN-104             
1 66046U 25233P   26062.12863140  .00000036  00000+0  37364-4 0  9993
2 66046  88.9936  53.8116 0002088  86.2567 273.8822 13.51010073 18915
QIANFAN-105             
1 66047U 25233Q   26062.13674637  .00000045  00000+0  51258-4 0  9994
2 66047  88.9950  53.6397 0002011  92.6132 267.5249 13.50981402 19024
QIANFAN-106             
1 66048U 25233R   26062.13290447  .00000034  00000+0  34502-4 0  9999
2 66048  88.9918  53.8863 0002383  87.2331 272.9093 13.51005060 18879
QIANFAN-107             
1 66049U 25233S   26062.14116006  .00000044  00000+0  48916-4 0  9994
2 66049  88.9934  53.9011 0001909  90.4830 269.6540 13.51003094 18872
QIANFAN-108             
1 66050U 25233T   26062.14526730  .00000033  00000+0  32332-4 0  9998
2 66050  88.9927  53.8959 0002326  86.8022 273.3395 13.51004554 18874
